{"fetched_at":"2026-07-14T17:40:50.181Z","source":"https://celestrak.org/NORAD/elements/gp.php?NAME=ICEYE&FORMAT=JSON","constellation":"iceye","records":[{"OBJECT_NAME":"ICEYE-X40","OBJECT_ID":"2024-149CK","EPOCH":"2026-07-12T18:03:31.995360","CLASSIFICATION_TYPE":"U","MEAN_MOTION":14.98059522,"ECCENTRICITY":0.0004271,"INCLINATION":97.68,"RA_OF_ASC_NODE":269.8364,"ARG_OF_PERICENTER":12.3091,"MEAN_ANOMALY":347.8235,"EPHEMERIS_TYPE":0,"NORAD_CAT_ID":60549,"ELEMENT_SET_NO":999,"REV_AT_EPOCH":10390,"BSTAR":0.00011788,"MEAN_MOTION_DOT":0.00001336,"MEAN_MOTION_DDOT":0},{"OBJECT_NAME":"ICEYE-X49","OBJECT_ID":"2024-247H","EPOCH":"2026-07-13T10:34:12.990432","CLASSIFICATION_TYPE":"U","MEAN_MOTION":15.13608718,"ECCENTRICITY":0.00014215,"INCLINATION":44.9963,"RA_OF_ASC_NODE":217.1632,"ARG_OF_PERICENTER":241.3726,"MEAN_ANOMALY":118.7009,"EPHEMERIS_TYPE":0,"NORAD_CAT_ID":62384,"ELEMENT_SET_NO":999,"REV_AT_EPOCH":8615,"BSTAR":0.000095124861,"MEAN_MOTION_DOT":0.0000148,"MEAN_MOTION_DDOT":0},{"OBJECT_NAME":"ICEYE-X47","OBJECT_ID":"2024-247N","EPOCH":"2026-07-13T11:34:28.662816","CLASSIFICATION_TYPE":"U","MEAN_MOTION":15.1348114,"ECCENTRICITY":0.00016099,"INCLINATION":44.9949,"RA_OF_ASC_NODE":216.5337,"ARG_OF_PERICENTER":338.0581,"MEAN_ANOMALY":22.0227,"EPHEMERIS_TYPE":0,"NORAD_CAT_ID":62389,"ELEMENT_SET_NO":999,"REV_AT_EPOCH":8616,"BSTAR":0.000074006403,"MEAN_MOTION_DOT":0.0000109,"MEAN_MOTION_DDOT":0},{"OBJECT_NAME":"ICEYE-X42","OBJECT_ID":"2025-009CT","EPOCH":"2026-07-14T04:04:57.205920","CLASSIFICATION_TYPE":"U","MEAN_MOTION":14.91852031,"ECCENTRICITY":0.0001299,"INCLINATION":97.7391,"RA_OF_ASC_NODE":272.9987,"ARG_OF_PERICENTER":97.2274,"MEAN_ANOMALY":262.9092,"EPHEMERIS_TYPE":0,"NORAD_CAT_ID":62698,"ELEMENT_SET_NO":999,"REV_AT_EPOCH":8131,"BSTAR":0.00012129,"MEAN_MOTION_DOT":0.00001169,"MEAN_MOTION_DDOT":0},{"OBJECT_NAME":"ICEYE-X41","OBJECT_ID":"2025-009CV","EPOCH":"2026-07-14T03:27:28.696032","CLASSIFICATION_TYPE":"U","MEAN_MOTION":14.96909226,"ECCENTRICITY":0.0000342,"INCLINATION":97.7061,"RA_OF_ASC_NODE":274.2796,"ARG_OF_PERICENTER":310.43,"MEAN_ANOMALY":49.6892,"EPHEMERIS_TYPE":0,"NORAD_CAT_ID":62700,"ELEMENT_SET_NO":999,"REV_AT_EPOCH":8144,"BSTAR":0.0001327,"MEAN_MOTION_DOT":0.00001466,"MEAN_MOTION_DDOT":0},{"OBJECT_NAME":"ICEYE-X45","OBJECT_ID":"2025-009DA","EPOCH":"2026-07-14T04:44:54.486240","CLASSIFICATION_TYPE":"U","MEAN_MOTION":15.00846138,"ECCENTRICITY":0.0001067,"INCLINATION":97.8412,"RA_OF_ASC_NODE":282.1074,"ARG_OF_PERICENTER":76.1848,"MEAN_ANOMALY":283.9495,"EPHEMERIS_TYPE":0,"NORAD_CAT_ID":62705,"ELEMENT_SET_NO":999,"REV_AT_EPOCH":8173,"BSTAR":0.00010974,"MEAN_MOTION_DOT":0.00001333,"MEAN_MOTION_DDOT":0},{"OBJECT_NAME":"ICEYE-X44","OBJECT_ID":"2025-009DC","EPOCH":"2026-07-14T04:08:43.543680","CLASSIFICATION_TYPE":"U","MEAN_MOTION":14.96163757,"ECCENTRICITY":0.0002542,"INCLINATION":97.7058,"RA_OF_ASC_NODE":273.8728,"ARG_OF_PERICENTER":74.245,"MEAN_ANOMALY":285.9051,"EPHEMERIS_TYPE":0,"NORAD_CAT_ID":62707,"ELEMENT_SET_NO":999,"REV_AT_EPOCH":10397,"BSTAR":0.00018366,"MEAN_MOTION_DOT":0.00002011,"MEAN_MOTION_DDOT":0},{"OBJECT_NAME":"ICEYE-X48","OBJECT_ID":"2025-052AV","EPOCH":"2026-07-14T04:12:11.357280","CLASSIFICATION_TYPE":"U","MEAN_MOTION":14.98122082,"ECCENTRICITY":0.0003892,"INCLINATION":97.6838,"RA_OF_ASC_NODE":86.9481,"ARG_OF_PERICENTER":106.7765,"MEAN_ANOMALY":253.3885,"EPHEMERIS_TYPE":0,"NORAD_CAT_ID":63253,"ELEMENT_SET_NO":999,"REV_AT_EPOCH":7271,"BSTAR":0.00015324,"MEAN_MOTION_DOT":0.00001757,"MEAN_MOTION_DDOT":0},{"OBJECT_NAME":"ICEYE-X50","OBJECT_ID":"2025-052AX","EPOCH":"2026-07-14T04:36:46.300320","CLASSIFICATION_TYPE":"U","MEAN_MOTION":14.95363751,"ECCENTRICITY":0.0003456,"INCLINATION":97.686,"RA_OF_ASC_NODE":86.5655,"ARG_OF_PERICENTER":103.6804,"MEAN_ANOMALY":256.4802,"EPHEMERIS_TYPE":0,"NORAD_CAT_ID":63255,"ELEMENT_SET_NO":999,"REV_AT_EPOCH":7268,"BSTAR":0.00010013,"MEAN_MOTION_DOT":0.00001048,"MEAN_MOTION_DDOT":0},{"OBJECT_NAME":"ICEYE-X51","OBJECT_ID":"2025-052AZ","EPOCH":"2026-07-14T04:36:39.237984","CLASSIFICATION_TYPE":"U","MEAN_MOTION":15.00879898,"ECCENTRICITY":0.0002052,"INCLINATION":97.7609,"RA_OF_ASC_NODE":90.239,"ARG_OF_PERICENTER":68.7887,"MEAN_ANOMALY":291.3556,"EPHEMERIS_TYPE":0,"NORAD_CAT_ID":63257,"ELEMENT_SET_NO":999,"REV_AT_EPOCH":7285,"BSTAR":0.00017181,"MEAN_MOTION_DOT":0.00002125,"MEAN_MOTION_DDOT":0},{"OBJECT_NAME":"ICEYE-X46","OBJECT_ID":"2025-052BA","EPOCH":"2026-07-14T04:32:03.488064","CLASSIFICATION_TYPE":"U","MEAN_MOTION":14.95365293,"ECCENTRICITY":0.0001718,"INCLINATION":97.6861,"RA_OF_ASC_NODE":86.5612,"ARG_OF_PERICENTER":83.0199,"MEAN_ANOMALY":277.1217,"EPHEMERIS_TYPE":0,"NORAD_CAT_ID":63258,"ELEMENT_SET_NO":999,"REV_AT_EPOCH":7268,"BSTAR":0.00012165,"MEAN_MOTION_DOT":0.00001286,"MEAN_MOTION_DDOT":0},{"OBJECT_NAME":"ICEYE-X54","OBJECT_ID":"2025-135AU","EPOCH":"2026-07-14T04:55:17.807808","CLASSIFICATION_TYPE":"U","MEAN_MOTION":14.94729219,"ECCENTRICITY":0.000199,"INCLINATION":97.7745,"RA_OF_ASC_NODE":309.3699,"ARG_OF_PERICENTER":183.6768,"MEAN_ANOMALY":176.4438,"EPHEMERIS_TYPE":0,"NORAD_CAT_ID":64570,"ELEMENT_SET_NO":999,"REV_AT_EPOCH":5793,"BSTAR":0.00017413,"MEAN_MOTION_DOT":0.00001833,"MEAN_MOTION_DDOT":0},{"OBJECT_NAME":"ICEYE-X52","OBJECT_ID":"2025-135AW","EPOCH":"2026-07-14T04:51:11.032128","CLASSIFICATION_TYPE":"U","MEAN_MOTION":14.93650644,"ECCENTRICITY":0.0001171,"INCLINATION":97.7768,"RA_OF_ASC_NODE":309.1578,"ARG_OF_PERICENTER":191.1546,"MEAN_ANOMALY":168.9648,"EPHEMERIS_TYPE":0,"NORAD_CAT_ID":64572,"ELEMENT_SET_NO":999,"REV_AT_EPOCH":5791,"BSTAR":0.00012239,"MEAN_MOTION_DOT":0.00001236,"MEAN_MOTION_DDOT":0},{"OBJECT_NAME":"ICEYE-X56","OBJECT_ID":"2025-135AY","EPOCH":"2026-07-14T04:38:10.440960","CLASSIFICATION_TYPE":"U","MEAN_MOTION":14.95758212,"ECCENTRICITY":0.0001314,"INCLINATION":97.7765,"RA_OF_ASC_NODE":309.9443,"ARG_OF_PERICENTER":195.9433,"MEAN_ANOMALY":164.1747,"EPHEMERIS_TYPE":0,"NORAD_CAT_ID":64574,"ELEMENT_SET_NO":999,"REV_AT_EPOCH":5796,"BSTAR":0.00018335,"MEAN_MOTION_DOT":0.00001986,"MEAN_MOTION_DDOT":0},{"OBJECT_NAME":"ICEYE-X57","OBJECT_ID":"2025-135BC","EPOCH":"2026-07-14T04:49:49.384128","CLASSIFICATION_TYPE":"U","MEAN_MOTION":15.00856309,"ECCENTRICITY":0.0002132,"INCLINATION":97.8022,"RA_OF_ASC_NODE":311.7521,"ARG_OF_PERICENTER":59.7623,"MEAN_ANOMALY":300.3811,"EPHEMERIS_TYPE":0,"NORAD_CAT_ID":64578,"ELEMENT_SET_NO":999,"REV_AT_EPOCH":5807,"BSTAR":0.00020664,"MEAN_MOTION_DOT":0.00002567,"MEAN_MOTION_DDOT":0},{"OBJECT_NAME":"ICEYE-X55","OBJECT_ID":"2025-135BF","EPOCH":"2026-07-14T04:48:31.916160","CLASSIFICATION_TYPE":"U","MEAN_MOTION":14.95358827,"ECCENTRICITY":0.0001848,"INCLINATION":97.7765,"RA_OF_ASC_NODE":309.7778,"ARG_OF_PERICENTER":238.8886,"MEAN_ANOMALY":121.2153,"EPHEMERIS_TYPE":0,"NORAD_CAT_ID":64581,"ELEMENT_SET_NO":999,"REV_AT_EPOCH":5795,"BSTAR":0.00019516,"MEAN_MOTION_DOT":0.00002096,"MEAN_MOTION_DDOT":0}]}
