ICEYE-X40               
1 60549U 24149CK  26193.75245365  .00001336  00000+0  11788-3 0  9992
2 60549  97.6800 269.8364 0004271  12.3091 347.8235 14.98059522103904
ICEYE-X49               
1 62384U 24247H   26194.44042813  .00001480  00000+0  95125-4 0  9998
2 62384  44.9963 217.1632 0001421 241.3726 118.7009 15.13608718 86151
ICEYE-X47               
1 62389U 24247N   26194.48227619  .00001090  00000+0  74006-4 0  9998
2 62389  44.9949 216.5337 0001609 338.0581  22.0227 15.13481140 86164
ICEYE-X42               
1 62698U 25009CT  26195.17010655  .00001169  00000+0  12129-3 0  9999
2 62698  97.7391 272.9987 0001299  97.2274 262.9092 14.91852031 81312
ICEYE-X41               
1 62700U 25009CV  26195.14408213  .00001466  00000+0  13270-3 0  9999
2 62700  97.7061 274.2796 0000342 310.4300  49.6892 14.96909226 81447
ICEYE-X45               
1 62705U 25009DA  26195.19785285  .00001333  00000+0  10974-3 0  9997
2 62705  97.8412 282.1074 0001067  76.1848 283.9495 15.00846138 81730
ICEYE-X44               
1 62707U 25009DC  26195.17272620  .00002011  00000+0  18366-3 0  9998
2 62707  97.7058 273.8728 0002542  74.2450 285.9051 14.96163757103971
ICEYE-X48               
1 63253U 25052AV  26195.17513145  .00001757  00000+0  15324-3 0  9990
2 63253  97.6838  86.9481 0003892 106.7765 253.3885 14.98122082 72710
ICEYE-X50               
1 63255U 25052AX  26195.19220255  .00001048  00000+0  10013-3 0  9994
2 63255  97.6860  86.5655 0003456 103.6804 256.4802 14.95363751 72688
ICEYE-X51               
1 63257U 25052AZ  26195.19212081  .00002125  00000+0  17181-3 0  9994
2 63257  97.7609  90.2390 0002052  68.7887 291.3556 15.00879898 72857
ICEYE-X46               
1 63258U 25052BA  26195.18892926  .00001286  00000+0  12165-3 0  9990
2 63258  97.6861  86.5612 0001718  83.0199 277.1217 14.95365293 72685
ICEYE-X54               
1 64570U 25135AU  26195.20506722  .00001833  00000+0  17413-3 0  9998
2 64570  97.7745 309.3699 0001990 183.6768 176.4438 14.94729219 57935
ICEYE-X52               
1 64572U 25135AW  26195.20221102  .00001236  00000+0  12239-3 0  9994
2 64572  97.7768 309.1578 0001171 191.1546 168.9648 14.93650644 57916
ICEYE-X56               
1 64574U 25135AY  26195.19317640  .00001986  00000+0  18335-3 0  9992
2 64574  97.7765 309.9443 0001314 195.9433 164.1747 14.95758212 57965
ICEYE-X57               
1 64578U 25135BC  26195.20126602  .00002567  00000+0  20664-3 0  9998
2 64578  97.8022 311.7521 0002132  59.7623 300.3811 15.00856309 58073
ICEYE-X55               
1 64581U 25135BF  26195.20036940  .00002096  00000+0  19516-3 0  9998
2 64581  97.7765 309.7778 0001848 238.8886 121.2153 14.95358827 57955
